IRIDIUM 36              
1 24967U 97056C   24273.78675147  .00001180  00000+0  39139-3 0  9995
2 24967  86.3904 282.3616 0002439  94.7708 265.3768 14.37059073414815
IRIDIUM 39              
1 25042U 97069D   24273.55266797  .00001868  00000+0  49246-3 0  9999
2 25042  86.3925 322.8910 0020457  96.7066 263.6467 14.48385144411489
IRIDIUM 38              
1 25043U 97069E   24273.69101842  .00001328  00000+0  43693-3 0  9995
2 25043  86.4006 342.7673 0001444 152.0040 208.1236 14.37556600408783
IRIDIUM 42              
1 25077U 97077A   24273.65936583  .00001339  00000+0  45588-3 0  9992
2 25077  86.4017 348.6245 0001582 104.3101 255.8271 14.35833562403802
IRIDIUM 44              
1 25078U 97077B   24273.54950750  .00001221  00000+0  38424-3 0  9994
2 25078  86.3982 331.3005 0003331 125.2353 234.9158 14.39675574406199
IRIDIUM 45              
1 25104U 97082A   24273.23278416  .00022838  00000+0  11402-2 0  9991
2 25104  86.3710 173.2377 0144331 219.1174 139.9562 15.08609848412517
IRIDIUM 24              
1 25105U 97082B   24273.50784097  .00001664  00000+0  50663-3 0  9996
2 25105  86.3984 190.7336 0009881 209.7619 150.3020 14.41499260405901
IRIDIUM 51              
1 25262U 98018A   24273.46340714  .00038871  00000+0  15355-2 0  9997
2 25262  86.3997 182.6086 0131172 154.9690 205.7991 15.17642026407199
